FENGYUN 3D              
1 43010U 17072A   26195.56199990  .00000058  00000+0  49321-4 0  9991
2 43010  99.0135 170.4811 0001578  15.2192 344.9030 14.19744289448873
NOAA 20 (JPSS-1)        
1 43013U 17073A   26195.56146251  .00000011  00000+0  26237-4 0  9997
2 43013  98.7773 134.7815 0001361 125.3297 234.8006 14.19516359448354
GOES 17                 
1 43226U 18022A   26195.54134034 -.00000191  00000+0  00000+0 0  9997
2 43226   1.0051  85.2664 0000537  83.1640 229.3588  1.00271123 30696
SENTINEL-3B             
1 43437U 18039A   26195.61047838  .00000003  00000+0  19336-4 0  9990
2 43437  98.6237 262.7475 0001120 120.2585 239.8707 14.26736045428039
FENGYUN 2H              
1 43491U 18050A   26195.64603314 -.00000137  00000+0  00000+0 0  9995
2 43491   3.0989  78.7445 0002302 133.6529  31.8195  1.00267169 29711
METOP-C                 
1 43689U 18087A   26195.58945123  .00000042  00000+0  39198-4 0  9993
2 43689  98.6631 254.6902 0002222  94.5008 265.6424 14.21518939398728
GEO-KOMPSAT-2A          
1 43823U 18100A   26195.51572480 -.00000352  00000+0  00000+0 0  9994
2 43823   0.0284 109.3887 0001955 352.3288 144.5795  1.00270056 27907
METEOR-M2 2             
1 44387U 19038A   26195.57035902  .00000032  00000+0  33896-4 0  9998
2 44387  98.9152 183.2617 0000791   4.1418 355.9767 14.24372935365191
ARKTIKA-M 1             
1 47719U 21016A   26195.40738865 -.00000301  00000+0  00000+0 0  9995
2 47719  63.2654  53.6705 7297241 270.0596  14.4999  2.00611674 39334
FENGYUN 3E              
1 49008U 21062A   26195.61331016 -.00000089  00000+0 -21127-4 0  9991
2 49008  98.7495 198.7158 0002285  39.9967 320.1377 14.19906296260473
GOES 18                 
1 51850U 22021A   26195.53189362  .00000089  00000+0  00000+0 0  9991
2 51850   0.0188 127.4398 0000403  62.3330 157.0962  1.00270645  6861
NOAA 21 (JPSS-2)        
1 54234U 22150A   26195.59377032 -.00000007  00000+0  17324-4 0  9995
2 54234  98.7060 133.9227 0002821 105.5596 254.5892 14.19540943190433
METEOSAT-12 (MTG-I1)    
1 54743U 22170C   26195.34513789 -.00000016  00000+0  00000+0 0  9994
2 54743   0.7242  19.5742 0003775  82.1984 314.3752  1.00267469 13253
TIANMU-1 03             
1 55973U 23039A   26195.59340862  .00008743  00000+0  16897-3 0  9991
2 55973  97.5235  10.6523 0002626  28.8116 331.3278 15.48032014185077
TIANMU-1 04             
1 55974U 23039B   26195.57207657  .00009709  00000+0  18338-3 0  9999
2 55974  97.5173   9.7861 0003100  15.2981 344.8362 15.48657529185089
TIANMU-1 05             
1 55975U 23039C   26195.57551970  .00010317  00000+0  19951-3 0  9999
2 55975  97.5218  10.2384 0003024  47.0310 313.1193 15.47958529185052
TIANMU-1 06             
1 55976U 23039D   26195.57721934  .00009761  00000+0  18501-3 0  9990
2 55976  97.5226  10.9037 0003126  38.6277 321.5196 15.48555013185086
FENGYUN 3G              
1 56232U 23055A   26195.57675412  .00014912  00000+0  23451-3 0  9997
2 56232  49.9902 204.7668 0007054  53.1282 307.0332 15.53769275184262
METEOR-M2 3             
1 57166U 23091A   26195.64126770 -.00000011  00000+0  14012-4 0  9990
2 57166  98.6068 250.0557 0005152  91.5081 268.6688 14.24048893158422
TIANMU-1 07             
1 57399U 23101A   26195.63491831  .00003551  00000+0  12440-3 0  9995
2 57399  97.2579 245.6758 0003790  65.9500 294.2137 15.30111698165842
TIANMU-1 08             
1 57400U 23101B   26195.60148675  .00003473  00000+0  12171-3 0  9994
2 57400  97.2567 245.4097 0004664  48.0691 312.0947 15.30114984165838
TIANMU-1 09             
1 57401U 23101C   26195.58426422  .00003562  00000+0  12461-3 0  9992
2 57401  97.2525 244.7948 0004388  66.2581 293.9120 15.30155850165830
TIANMU-1 10             
1 57402U 23101D   26195.61779613  .00003578  00000+0  12525-3 0  9998
2 57402  97.2605 245.9060 0005705  55.9583 304.2199 15.30129478165838
FENGYUN 3F              
1 57490U 23111A   26195.59656749  .00000010  00000+0  25246-4 0  9990
2 57490  98.6826 265.0931 0001290  76.4927 283.6393 14.19943350152752
ARKTIKA-M 2             
1 58584U 23198A   26195.17805492  .00000133  00000+0  00000+0 0  9997
2 58584  63.2180 151.3455 6910425 267.3421  18.7368  2.00608202 18864
TIANMU-1 11             
1 58645U 23205A   26195.63924341  .00003037  00000+0  11640-3 0  9992
2 58645  97.3440 216.7691 0006769 264.4838  95.5629 15.27260397141714
TIANMU-1 12             
1 58646U 23205B   26195.61158156  .00003068  00000+0  11818-3 0  9995
2 58646  97.3429 216.4891 0005758 237.1849 122.8836 15.27091704141692
TIANMU-1 13             
1 58647U 23205C   26195.57949416  .00003177  00000+0  12230-3 0  9998
2 58647  97.3456 216.7372 0005734 214.7784 145.3081 15.27084279141683
TIANMU-1 14             
1 58648U 23205D   26195.62942958  .00003086  00000+0  11871-3 0  9998
2 58648  97.3393 215.9467 0006378 222.4174 137.6573 15.27128412141693
TIANMU-1 19             
1 58660U 23208A   26195.59310366  .00004715  00000+0  15530-3 0  9999
2 58660  97.4528 312.0431 0004535 200.5591 159.5468 15.31969899141526
