OBJECT_NAME,OBJECT_ID,EPOCH,MEAN_MOTION,ECCENTRICITY,INCLINATION,RA_OF_ASC_NODE,ARG_OF_PERICENTER,MEAN_ANOMALY,EPHEMERIS_TYPE,CLASSIFICATION_TYPE,NORAD_CAT_ID,ELEMENT_SET_NO,REV_AT_EPOCH,BSTAR,MEAN_MOTION_DOT,MEAN_MOTION_DDOT
FENGYUN 3D,2017-072A,2026-07-14T13:29:16.791360,14.19744289,.00015784,99.0135,170.4811,15.2192,344.9030,0,U,43010,999,44887,.49320681E-4,.58E-6,0
NOAA 20 (JPSS-1),2017-073A,2026-07-14T13:28:30.360864,14.19516359,.00013613,98.7773,134.7815,125.3297,234.8006,0,U,43013,999,44835,.26236649E-4,.11E-6,0
GOES 17,2018-022A,2026-07-14T12:59:31.805376,1.00271123,.00005379,1.0051,85.2664,83.1640,229.3588,0,U,43226,999,3069,0,-.191E-5,0
SENTINEL-3B,2018-039A,2026-07-14T14:39:05.332032,14.26736045,.00011209,98.6237,262.7475,120.2585,239.8707,0,U,43437,999,42803,.1933645E-4,.3E-7,0
FENGYUN 2H,2018-050A,2026-07-14T15:30:17.263296,1.00267169,.00023024,3.0989,78.7445,133.6529,31.8195,0,U,43491,999,2971,0,-.137E-5,0
METOP-C,2018-087A,2026-07-14T14:08:48.586272,14.21518939,.0002222,98.6631,254.6902,94.5008,265.6424,0,U,43689,999,39872,.39197883E-4,.42E-6,0
GEO-KOMPSAT-2A,2018-100A,2026-07-14T12:22:38.622720,1.00270056,.00019559,0.0284,109.3887,352.3288,144.5795,0,U,43823,999,2790,0,-.352E-5,0
METEOR-M2 2,2019-038A,2026-07-14T13:41:19.019328,14.24372935,.00007915,98.9152,183.2617,4.1418,355.9767,0,U,44387,999,36519,.33895624E-4,.32E-6,0
ARKTIKA-M 1,2021-016A,2026-07-14T09:46:38.379360,2.00611674,.72972417,63.2654,53.6705,270.0596,14.4999,0,U,47719,999,3933,0,-.301E-5,0
FENGYUN 3E,2021-062A,2026-07-14T14:43:09.997824,14.19906296,.00022856,98.7495,198.7158,39.9967,320.1377,0,U,49008,999,26047,-.21127051E-4,-.89E-6,0
GOES 18,2022-021A,2026-07-14T12:45:55.608768,1.00270645,.00004032,0.0188,127.4398,62.3330,157.0962,0,U,51850,999,686,0,.89E-6,0
NOAA 21 (JPSS-2),2022-150A,2026-07-14T14:15:01.755648,14.19540943,.00028217,98.7060,133.9227,105.5596,254.5892,0,U,54234,999,19043,.17324021E-4,-.7E-7,0
METEOSAT-12 (MTG-I1),2022-170C,2026-07-14T08:16:59.913696,1.00267469,.0003775,0.7242,19.5742,82.1984,314.3752,0,U,54743,999,1325,0,-.16E-6,0
TIANMU-1 03,2023-039A,2026-07-14T14:14:30.504768,15.48032014,.00026266,97.5235,10.6523,28.8116,331.3278,0,U,55973,999,18507,.16896636E-3,.8743E-4,0
TIANMU-1 04,2023-039B,2026-07-14T13:43:47.415648,15.48657529,.00031005,97.5173,9.7861,15.2981,344.8362,0,U,55974,999,18508,.18338315E-3,.9709E-4,0
TIANMU-1 05,2023-039C,2026-07-14T13:48:44.902080,15.47958529,.00030243,97.5218,10.2384,47.0310,313.1193,0,U,55975,999,18505,.19951399E-3,.10317E-3,0
TIANMU-1 06,2023-039D,2026-07-14T13:51:11.750976,15.48555013,.00031267,97.5226,10.9037,38.6277,321.5196,0,U,55976,999,18508,.18500896E-3,.9761E-4,0
FENGYUN 3G,2023-055A,2026-07-14T13:50:31.555968,15.53769275,.00070549,49.9902,204.7668,53.1282,307.0332,0,U,56232,999,18426,.23451394E-3,.14912E-3,0
METEOR-M2 3,2023-091A,2026-07-14T15:23:25.529280,14.24048893,.00051526,98.6068,250.0557,91.5081,268.6688,0,U,57166,999,15842,.14012437E-4,-.11E-6,0
TIANMU-1 07,2023-101A,2026-07-14T15:14:16.941984,15.30111698,.00037908,97.2579,245.6758,65.9500,294.2137,0,U,57399,999,16584,.12440323E-3,.3551E-4,0
TIANMU-1 08,2023-101B,2026-07-14T14:26:08.455200,15.30114984,.00046641,97.2567,245.4097,48.0691,312.0947,0,U,57400,999,16583,.12170643E-3,.3473E-4,0
TIANMU-1 09,2023-101C,2026-07-14T14:01:20.428608,15.30155850,.00043887,97.2525,244.7948,66.2581,293.9120,0,U,57401,999,16583,.12461207E-3,.3562E-4,0
TIANMU-1 10,2023-101D,2026-07-14T14:49:37.585632,15.30129478,.00057055,97.2605,245.9060,55.9583,304.2199,0,U,57402,999,16583,.12525224E-3,.3578E-4,0
FENGYUN 3F,2023-111A,2026-07-14T14:19:03.431136,14.19943350,.00012901,98.6826,265.0931,76.4927,283.6393,0,U,57490,999,15275,.25245554E-4,.1E-6,0
ARKTIKA-M 2,2023-198A,2026-07-14T04:16:23.945088,2.00608202,.69104254,63.2180,151.3455,267.3421,18.7368,0,U,58584,999,1886,0,.133E-5,0
TIANMU-1 11,2023-205A,2026-07-14T15:20:30.630624,15.27260397,.00067697,97.3440,216.7691,264.4838,95.5629,0,U,58645,999,14171,.1163963E-3,.3037E-4,0
TIANMU-1 12,2023-205B,2026-07-14T14:40:40.646784,15.27091704,.00057584,97.3429,216.4891,237.1849,122.8836,0,U,58646,999,14169,.11818462E-3,.3068E-4,0
TIANMU-1 13,2023-205C,2026-07-14T13:54:28.295424,15.27084279,.0005734,97.3456,216.7372,214.7784,145.3081,0,U,58647,999,14168,.12230035E-3,.3177E-4,0
TIANMU-1 14,2023-205D,2026-07-14T15:06:22.715712,15.27128412,.00063781,97.3393,215.9467,222.4174,137.6573,0,U,58648,999,14169,.11871267E-3,.3086E-4,0
TIANMU-1 19,2023-208A,2026-07-14T14:14:04.156224,15.31969899,.00045359,97.4528,312.0431,200.5591,159.5468,0,U,58660,999,14152,.15529738E-3,.4715E-4,0
